BREEZE-M R/B            
1 38746U 12044C   21340.91117693  .00003572  00000-0  22767-3 0  9990
2 38746  49.6790 336.7957 2376560 134.9289 247.0852 10.56216584343501
BREEZE-M DEB            
1 38884U 12044R   21341.36423533  .00010005  22745-5  28063-3 0  9995
2 38884  50.0210 333.9451 2248339 309.6819  32.5903 10.94311980356132
BREEZE-M DEB            
1 38888U 12044V   21341.33237498  .00039307  45976-5  57900-3 0  9998
2 38888  50.0232 200.3287 1588966 218.9279 128.5983 12.41315309383506
BREEZE-M DEB            
1 38921U 12044BE  21341.47841193  .00084922  86169-5  63350-3 0  9992
2 38921  50.1720 127.5280 0882632  65.3629 303.6589 14.05089334399131
BREEZE-M DEB            
1 38922U 12044BF  21341.32243778  .00012421  30494-5  28101-3 0  9992
2 38922  50.0711 298.7036 2037774 251.8233  85.1255 11.40868138365537
BREEZE-M DEB            
1 38926U 12044BK  21341.38349096  .00083802  62049-5  12152-2 0  9992
2 38926  49.9865 338.3361 1321019 350.7096   7.1358 12.99236812395403
BREEZE-M DEB            
1 38948U 12044CH  21340.87464713  .00040070  60139-5  64022-3 0  9995
2 38948  50.0517 285.5866 1457204  67.8293 307.0524 12.68718909389114
BREEZE-M DEB            
1 38957U 12044CQ  21340.35443872  .00053605  56580-5  69897-3 0  9999
2 38957  50.0046  39.2193 1416675   0.2849 359.8547 12.80140993385687
BREEZE-M DEB            
1 38959U 12044CS  21339.06182915  .00363293  99435-5  96030-3 0  9997
2 38959  49.9247 110.7399 0308047   2.4266 357.8109 15.46041065377780
BREEZE-M DEB            
1 38960U 12044CT  21340.68727095  .00017702  40248-5  37537-3 0  9999
2 38960  50.1177 125.2345 1702085 305.4413  39.8894 12.12545683325710
BREEZE-M DEB            
1 38961U 12044CU  21341.16480262  .00040696  60495-5  63388-3 0  9993
2 38961  50.0610 270.5958 1455593  73.0356 302.4543 12.69422521389503
